{
  "type": "FeatureCollection",
  "features": [
    {
      "type": "Feature",
      "properties": { "district": "Kamrup Metropolitan", "state": "Assam" },
      "geometry": {
        "type": "Polygon",
        "coordinates": [[[91.5, 26.0], [92.0, 26.0], [92.0, 26.3], [91.5, 26.3], [91.5, 26.0]]]
      }
    },
    {
      "type": "Feature",
      "properties": { "district": "Jorhat", "state": "Assam" },
      "geometry": {
        "type": "Polygon",
        "coordinates": [[[94.0, 26.6], [94.4, 26.6], [94.4, 26.9], [94.0, 26.9], [94.0, 26.6]]]
      }
    },
    {
      "type": "Feature",
      "properties": { "district": "Dibrugarh", "state": "Assam" },
      "geometry": {
        "type": "Polygon",
        "coordinates": [[[94.7, 27.2], [95.2, 27.2], [95.2, 27.6], [94.7, 27.6], [94.7, 27.2]]]
      }
    },
    {
      "type": "Feature",
      "properties": { "district": "Cachar", "state": "Assam" },
      "geometry": {
        "type": "Polygon",
        "coordinates": [[[92.6, 24.6], [93.1, 24.6], [93.1, 25.0], [92.6, 25.0], [92.6, 24.6]]]
      }
    },
    {
      "type": "Feature",
      "properties": { "district": "East Khasi Hills", "state": "Meghalaya" },
      "geometry": {
        "type": "Polygon",
        "coordinates": [[[91.6, 25.3], [92.1, 25.3], [92.1, 25.7], [91.6, 25.7], [91.6, 25.3]]]
      }
    },
    {
      "type": "Feature",
      "properties": { "district": "Aizawl", "state": "Mizoram" },
      "geometry": {
        "type": "Polygon",
        "coordinates": [[[92.5, 23.5], [93.0, 23.5], [93.0, 24.0], [92.5, 24.0], [92.5, 23.5]]]
      }
    },
    {
      "type": "Feature",
      "properties": { "district": "Imphal West", "state": "Manipur" },
      "geometry": {
        "type": "Polygon",
        "coordinates": [[[93.7, 24.6], [94.1, 24.6], [94.1, 25.0], [93.7, 25.0], [93.7, 24.6]]]
      }
    },
    {
      "type": "Feature",
      "properties": { "district": "South Sikkim", "state": "Sikkim" },
      "geometry": {
        "type": "Polygon",
        "coordinates": [[[88.2, 27.1], [88.6, 27.1], [88.6, 27.4], [88.2, 27.4], [88.2, 27.1]]]
      }
    },
    {
      "type": "Feature",
      "properties": { "district": "Kohima", "state": "Nagaland" },
      "geometry": {
        "type": "Polygon",
        "coordinates": [[[93.9, 25.5], [94.3, 25.5], [94.3, 25.9], [93.9, 25.9], [93.9, 25.5]]]
      }
    },
    {
      "type": "Feature",
      "properties": { "district": "West Tripura", "state": "Tripura" },
      "geometry": {
        "type": "Polygon",
        "coordinates": [[[91.1, 23.7], [91.5, 23.7], [91.5, 24.0], [91.1, 24.0], [91.1, 23.7]]]
      }
    }
  ]
}
